{
    "links": {
        "self": "http://www.neowsapp.com/rest/v1/neo/3767157?api_key=iIulBulltgU6a56xZRHN4H3l9WmuAYTsLGpBGhQ2"
    },
    "id": "3767157",
    "neo_reference_id": "3767157",
    "name": "(2017 BE30)",
    "designation": "2017 BE30",
    "nasa_jpl_url": "http://ssd.jpl.nasa.gov/sbdb.cgi?sstr=3767157",
    "absolute_magnitude_h": 26.1,
    "estimated_diameter": {
        "kilometers": {
            "estimated_diameter_min": 0.0160160338,
            "estimated_diameter_max": 0.0358129403
        },
        "meters": {
            "estimated_diameter_min": 16.0160337979,
            "estimated_diameter_max": 35.8129403019
        },
        "miles": {
            "estimated_diameter_min": 0.0099518989,
            "estimated_diameter_max": 0.0222531225
        },
        "feet": {
            "estimated_diameter_min": 52.5460443254,
            "estimated_diameter_max": 117.4965270602
        }
    },
    "is_potentially_hazardous_asteroid": false,
    "close_approach_data": [
        {
            "close_approach_date": "2017-01-20",
            "close_approach_date_full": "2017-Jan-20 08:45",
            "epoch_date_close_approach": 1484901900000,
            "relative_velocity": {
                "kilometers_per_second": "16.4379089526",
                "kilometers_per_hour": "59176.4722293834",
                "miles_per_hour": "36769.9585360855"
            },
            "miss_distance": {
                "astronomical": "0.0145144343",
                "lunar": "5.6461149427",
                "kilometers": "2171328.455534941",
                "miles": "1349200.9389905458"
            },
            "orbiting_body": "Earth"
        },
        {
            "close_approach_date": "2018-09-12",
            "close_approach_date_full": "2018-Sep-12 17:37",
            "epoch_date_close_approach": 1536773820000,
            "relative_velocity": {
                "kilometers_per_second": "3.73998127",
                "kilometers_per_hour": "13463.9325721764",
                "miles_per_hour": "8365.9641029726"
            },
            "miss_distance": {
                "astronomical": "1.723085524",
                "lunar": "670.280268836",
                "kilometers": "257769924.21823388",
                "miles": "160170803.690352344"
            },
            "orbiting_body": "Juptr"
        }
    ],
    "orbital_data": {
        "orbit_id": "10",
        "orbit_determination_date": "2018-05-10 06:26:04",
        "first_observation_date": "2017-01-27",
        "last_observation_date": "2017-02-03",
        "data_arc_in_days": 7,
        "observations_used": 30,
        "orbit_uncertainty": "8",
        "minimum_orbit_intersection": ".00920047",
        "jupiter_tisserand_invariant": "3.297",
        "epoch_osculation": "2457784.5",
        "eccentricity": ".6651428710958096",
        "semi_major_axis": "2.241242661935808",
        "inclination": "5.893368479210594",
        "ascending_node_longitude": "306.2436119780472",
        "orbital_period": "1225.552013564655",
        "perihelion_distance": ".7504960829534096",
        "perihelion_argument": "108.6101655218706",
        "aphelion_distance": "3.731989240918207",
        "perihelion_time": "2457732.966512583201",
        "mean_anomaly": "15.13771367082733",
        "mean_motion": ".2937451825915571",
        "equinox": "J2000",
        "orbit_class": {
            "orbit_class_type": "APO",
            "orbit_class_description": "Near-Earth asteroid orbits which cross the Earth’s orbit similar to that of 1862 Apollo",
            "orbit_class_range": "a (semi-major axis) > 1.0 AU; q (perihelion) < 1.017 AU"
        }
    },
    "is_sentry_object": false
}